[{"OBJECT_NAME":"STARLINK-1654","OBJECT_ID":"2020-062B","EPOCH":"2026-03-09T23:24:23.698656","MEAN_MOTION":15.68868536,"ECCENTRICITY":0.00033751,"INCLINATION":53.0444,"RA_OF_ASC_NODE":332.2394,"ARG_OF_PERICENTER":329.1833,"MEAN_ANOMALY":30.8985,"EPHEMERIS_TYPE":0,"CLASSIFICATION_TYPE":"U","NORAD_CAT_ID":46326,"ELEMENT_SET_NO":999,"REV_AT_EPOCH":30496,"BSTAR":0.00096287579,"MEAN_MOTION_DOT":0.00113674,"MEAN_MOTION_DDOT":0},{"OBJECT_NAME":"STARLINK-11355 [DTC]","OBJECT_ID":"2024-249G","EPOCH":"2026-03-09T22:00:01.999584","MEAN_MOTION":15.68645718,"ECCENTRICITY":0.0001809,"INCLINATION":43,"RA_OF_ASC_NODE":166.0531,"ARG_OF_PERICENTER":287.7315,"MEAN_ANOMALY":260.0977,"EPHEMERIS_TYPE":0,"CLASSIFICATION_TYPE":"U","NORAD_CAT_ID":62415,"ELEMENT_SET_NO":999,"REV_AT_EPOCH":598,"BSTAR":0.0048932843,"MEAN_MOTION_DOT":0.00617685,"MEAN_MOTION_DDOT":0}]
